[{"OBJECT_NAME":"STARLINK-34072","OBJECT_ID":"2025-110F","EPOCH":"2026-03-09T07:44:22.392960","MEAN_MOTION":15.30190771,"ECCENTRICITY":0.00011238,"INCLINATION":53.1602,"RA_OF_ASC_NODE":28.6578,"ARG_OF_PERICENTER":54.2929,"MEAN_ANOMALY":305.8176,"EPHEMERIS_TYPE":0,"CLASSIFICATION_TYPE":"U","NORAD_CAT_ID":64101,"ELEMENT_SET_NO":999,"REV_AT_EPOCH":4582,"BSTAR":0.00098571666,"MEAN_MOTION_DOT":0.0002894,"MEAN_MOTION_DDOT":0},{"OBJECT_NAME":"AVUM R\/B","OBJECT_ID":"2015-028B","EPOCH":"2026-03-09T15:47:10.915008","MEAN_MOTION":15.38120394,"ECCENTRICITY":0.01316946,"INCLINATION":98.6577,"RA_OF_ASC_NODE":312.3046,"ARG_OF_PERICENTER":250.9525,"MEAN_ANOMALY":107.7413,"EPHEMERIS_TYPE":0,"CLASSIFICATION_TYPE":"U","NORAD_CAT_ID":40698,"ELEMENT_SET_NO":999,"REV_AT_EPOCH":58785,"BSTAR":0.00031736457,"MEAN_MOTION_DOT":0.00015963,"MEAN_MOTION_DDOT":0}]
